ONEWEB-0371             
1 49297U 21090U   24302.58750826  .00000106  00000+0  23205-3 0  9996
2 49297  87.9167  63.5999 0001649  94.9997 265.1324 13.19728158149056
ONEWEB-0372             
1 49298U 21090V   24302.50086060  .00000197  00000+0  45343-3 0  9998
2 49298  87.9294  33.1433 0001841 100.4318 259.7023 13.20774127151077
ONEWEB-0373             
1 49299U 21090W   24302.52781391  .00000043  00000+0  73261-4 0  9991
2 49299  87.9294  33.1527 0001705 110.8132 249.3184 13.20774548152262
ONEWEB-0374             
1 49300U 21090X   24302.58366411  .00000229  00000+0  58332-3 0  9999
2 49300  87.9017  48.3346 0001733 102.5454 257.5869 13.14505225150470
ONEWEB-0375             
1 49301U 21090Y   24302.66670250  .00000115  00000+0  25181-3 0  9998
2 49301  87.9297  33.1021 0001551 126.1766 233.9511 13.20772271151780
ONEWEB-0376             
1 49302U 21090Z   24302.58595077  .00000032  00000+0  46752-4 0  9999
2 49302  87.9159  63.6000 0001890  95.1085 265.0263 13.19723543149040
ONEWEB-0377             
1 49303U 21090AA  24302.50113370  .00000158  00000+0  35607-3 0  9999
2 49303  87.9292  33.1265 0001451  98.9638 261.1659 13.20773097151750
ONEWEB-0378             
1 49304U 21090AB  24302.67474347  .00000135  00000+0  29975-3 0  9998
2 49304  87.9296  33.0972 0001678 104.6223 255.5096 13.20773610151040
